[{"OBJECT_NAME":"STARLINK-5924","OBJECT_ID":"2023-037BB","EPOCH":"2026-03-09T21:16:56.793216","MEAN_MOTION":14.98330037,"ECCENTRICITY":0.00029882,"INCLINATION":69.9983,"RA_OF_ASC_NODE":263.9199,"ARG_OF_PERICENTER":270.0052,"MEAN_ANOMALY":90.0765,"EPHEMERIS_TYPE":0,"CLASSIFICATION_TYPE":"U","NORAD_CAT_ID":55963,"ELEMENT_SET_NO":999,"REV_AT_EPOCH":16450,"BSTAR":4.580269e-6,"MEAN_MOTION_DOT":-3.8e-7,"MEAN_MOTION_DDOT":0},{"OBJECT_NAME":"CZ-4B R\/B","OBJECT_ID":"2019-059D","EPOCH":"2026-03-09T22:53:45.354624","MEAN_MOTION":15.13308828,"ECCENTRICITY":0.01361486,"INCLINATION":98.7209,"RA_OF_ASC_NODE":86.9492,"ARG_OF_PERICENTER":209.5346,"MEAN_ANOMALY":149.8142,"EPHEMERIS_TYPE":0,"CLASSIFICATION_TYPE":"U","NORAD_CAT_ID":44531,"ELEMENT_SET_NO":999,"REV_AT_EPOCH":35472,"BSTAR":0.00025424701,"MEAN_MOTION_DOT":5.595e-5,"MEAN_MOTION_DDOT":0}]
